[{"OBJECT_NAME":"NOAA 1","OBJECT_ID":"1970-106A","EPOCH":"2026-03-22T02:12:50.559840","MEAN_MOTION":12.54049452,"ECCENTRICITY":0.00319351,"INCLINATION":101.3487,"RA_OF_ASC_NODE":119.5979,"ARG_OF_PERICENTER":156.6949,"MEAN_ANOMALY":260.047,"EPHEMERIS_TYPE":0,"CLASSIFICATION_TYPE":"U","NORAD_CAT_ID":4793,"ELEMENT_SET_NO":999,"REV_AT_EPOCH":52977,"BSTAR":-3.5330222e-5,"MEAN_MOTION_DOT":-4.8e-7,"MEAN_MOTION_DDOT":0},{"OBJECT_NAME":"NOAA 2 (ITOS-D)","OBJECT_ID":"1972-082A","EPOCH":"2026-03-21T22:47:06.775008","MEAN_MOTION":12.53212207,"ECCENTRICITY":0.00038494,"INCLINATION":102.0155,"RA_OF_ASC_NODE":98.5446,"ARG_OF_PERICENTER":341.4882,"MEAN_ANOMALY":76.5683,"EPHEMERIS_TYPE":0,"CLASSIFICATION_TYPE":"U","NORAD_CAT_ID":6235,"ELEMENT_SET_NO":999,"REV_AT_EPOCH":44402,"BSTAR":-2.1042288e-5,"MEAN_MOTION_DOT":-5.0e-7,"MEAN_MOTION_DDOT":0},{"OBJECT_NAME":"NOAA 3","OBJECT_ID":"1973-086A","EPOCH":"2026-03-21T22:19:46.852032","MEAN_MOTION":12.40392056,"ECCENTRICITY":0.00061744,"INCLINATION":102.2901,"RA_OF_ASC_NODE":94.0283,"ARG_OF_PERICENTER":285.501,"MEAN_ANOMALY":134.2515,"EPHEMERIS_TYPE":0,"CLASSIFICATION_TYPE":"U","NORAD_CAT_ID":6920,"ELEMENT_SET_NO":999,"REV_AT_EPOCH":37108,"BSTAR":-3.4505029e-5,"MEAN_MOTION_DOT":-5.1e-7,"MEAN_MOTION_DDOT":0},{"OBJECT_NAME":"NOAA 4","OBJECT_ID":"1974-089A","EPOCH":"2026-03-21T22:18:33.228864","MEAN_MOTION":12.53201928,"ECCENTRICITY":0.00090004,"INCLINATION":102.007,"RA_OF_ASC_NODE":92.7922,"ARG_OF_PERICENTER":5.7393,"MEAN_ANOMALY":54.2259,"EPHEMERIS_TYPE":0,"CLASSIFICATION_TYPE":"U","NORAD_CAT_ID":7529,"ELEMENT_SET_NO":999,"REV_AT_EPOCH":34859,"BSTAR":-4.6872135e-5,"MEAN_MOTION_DOT":-5.4e-7,"MEAN_MOTION_DDOT":0},{"OBJECT_NAME":"NOAA 5","OBJECT_ID":"1976-077A","EPOCH":"2026-03-22T04:40:09.484608","MEAN_MOTION":12.3782879,"ECCENTRICITY":0.00099432,"INCLINATION":102.2978,"RA_OF_ASC_NODE":66.7679,"ARG_OF_PERICENTER":137.6207,"MEAN_ANOMALY":233.8853,"EPHEMERIS_TYPE":0,"CLASSIFICATION_TYPE":"U","NORAD_CAT_ID":9057,"ELEMENT_SET_NO":999,"REV_AT_EPOCH":24371,"BSTAR":6.9140109e-5,"MEAN_MOTION_DOT":-3.7e-7,"MEAN_MOTION_DDOT":0},{"OBJECT_NAME":"TIROS N","OBJECT_ID":"1978-096A","EPOCH":"2026-03-22T06:56:32.055360","MEAN_MOTION":14.19343738,"ECCENTRICITY":0.00113566,"INCLINATION":98.4618,"RA_OF_ASC_NODE":106.2495,"ARG_OF_PERICENTER":130.7181,"MEAN_ANOMALY":229.4984,"EPHEMERIS_TYPE":0,"CLASSIFICATION_TYPE":"U","NORAD_CAT_ID":11060,"ELEMENT_SET_NO":999,"REV_AT_EPOCH":66642,"BSTAR":8.7765544e-5,"MEAN_MOTION_DOT":1.43e-6,"MEAN_MOTION_DDOT":0},{"OBJECT_NAME":"NOAA 6","OBJECT_ID":"1979-057A","EPOCH":"2026-03-22T00:41:28.679424","MEAN_MOTION":14.35442259,"ECCENTRICITY":0.00104472,"INCLINATION":98.5732,"RA_OF_ASC_NODE":111.1068,"ARG_OF_PERICENTER":151.0914,"MEAN_ANOMALY":209.0852,"EPHEMERIS_TYPE":0,"CLASSIFICATION_TYPE":"U","NORAD_CAT_ID":11416,"ELEMENT_SET_NO":999,"REV_AT_EPOCH":43845,"BSTAR":0.00011182616,"MEAN_MOTION_DOT":2.77e-6,"MEAN_MOTION_DDOT":0},{"OBJECT_NAME":"NOAA 7","OBJECT_ID":"1981-059A","EPOCH":"2026-03-22T01:58:02.261568","MEAN_MOTION":14.17775845,"ECCENTRICITY":0.00119766,"INCLINATION":98.8035,"RA_OF_ASC_NODE":149.0265,"ARG_OF_PERICENTER":152.988,"MEAN_ANOMALY":207.1921,"EPHEMERIS_TYPE":0,"CLASSIFICATION_TYPE":"U","NORAD_CAT_ID":12553,"ELEMENT_SET_NO":999,"REV_AT_EPOCH":31240,"BSTAR":5.2203043e-5,"MEAN_MOTION_DOT":6.2e-7,"MEAN_MOTION_DDOT":0},{"OBJECT_NAME":"NOAA 8","OBJECT_ID":"1983-022A","EPOCH":"2026-03-22T06:58:56.815104","MEAN_MOTION":14.29771619,"ECCENTRICITY":0.00153507,"INCLINATION":98.737,"RA_OF_ASC_NODE":94.1301,"ARG_OF_PERICENTER":149.2541,"MEAN_ANOMALY":210.9543,"EPHEMERIS_TYPE":0,"CLASSIFICATION_TYPE":"U","NORAD_CAT_ID":13923,"ELEMENT_SET_NO":999,"REV_AT_EPOCH":23865,"BSTAR":7.121613e-5,"MEAN_MOTION_DOT":1.38e-6,"MEAN_MOTION_DDOT":0},{"OBJECT_NAME":"NOAA 9","OBJECT_ID":"1984-123A","EPOCH":"2026-03-22T01:45:21.164832","MEAN_MOTION":14.17042907,"ECCENTRICITY":0.00138482,"INCLINATION":99.1083,"RA_OF_ASC_NODE":105.6587,"ARG_OF_PERICENTER":234.2806,"MEAN_ANOMALY":187.4958,"EPHEMERIS_TYPE":0,"CLASSIFICATION_TYPE":"U","NORAD_CAT_ID":15427,"ELEMENT_SET_NO":999,"REV_AT_EPOCH":13108,"BSTAR":6.163357e-5,"MEAN_MOTION_DOT":7.7e-7,"MEAN_MOTION_DDOT":0},{"OBJECT_NAME":"NOAA 10","OBJECT_ID":"1986-073A","EPOCH":"2026-03-22T04:56:35.275776","MEAN_MOTION":14.29149148,"ECCENTRICITY":0.00109695,"INCLINATION":98.7014,"RA_OF_ASC_NODE":74.575,"ARG_OF_PERICENTER":248.8385,"MEAN_ANOMALY":121.689,"EPHEMERIS_TYPE":0,"CLASSIFICATION_TYPE":"U","NORAD_CAT_ID":16969,"ELEMENT_SET_NO":999,"REV_AT_EPOCH":5699,"BSTAR":6.3758053e-5,"MEAN_MOTION_DOT":1.17e-6,"MEAN_MOTION_DDOT":0},{"OBJECT_NAME":"NOAA 11","OBJECT_ID":"1988-089A","EPOCH":"2026-03-22T01:59:43.742688","MEAN_MOTION":14.15823455,"ECCENTRICITY":0.00108962,"INCLINATION":98.6116,"RA_OF_ASC_NODE":29.707,"ARG_OF_PERICENTER":182.4735,"MEAN_ANOMALY":177.6387,"EPHEMERIS_TYPE":0,"CLASSIFICATION_TYPE":"U","NORAD_CAT_ID":19531,"ELEMENT_SET_NO":999,"REV_AT_EPOCH":93515,"BSTAR":4.8683268e-5,"MEAN_MOTION_DOT":5.3e-7,"MEAN_MOTION_DDOT":0},{"OBJECT_NAME":"NOAA 12","OBJECT_ID":"1991-032A","EPOCH":"2026-03-22T05:40:51.754368","MEAN_MOTION":14.26721403,"ECCENTRICITY":0.00125197,"INCLINATION":98.6168,"RA_OF_ASC_NODE":71.0437,"ARG_OF_PERICENTER":283.9347,"MEAN_ANOMALY":76.0441,"EPHEMERIS_TYPE":0,"CLASSIFICATION_TYPE":"U","NORAD_CAT_ID":21263,"ELEMENT_SET_NO":999,"REV_AT_EPOCH":81256,"BSTAR":5.1316829e-5,"MEAN_MOTION_DOT":8.1e-7,"MEAN_MOTION_DDOT":0},{"OBJECT_NAME":"NOAA 13","OBJECT_ID":"1993-050A","EPOCH":"2026-03-21T19:46:09.140160","MEAN_MOTION":14.13640208,"ECCENTRICITY":0.00099732,"INCLINATION":98.6952,"RA_OF_ASC_NODE":28.2335,"ARG_OF_PERICENTER":25.0211,"MEAN_ANOMALY":335.1443,"EPHEMERIS_TYPE":0,"CLASSIFICATION_TYPE":"U","NORAD_CAT_ID":22739,"ELEMENT_SET_NO":999,"REV_AT_EPOCH":68103,"BSTAR":7.7400234e-5,"MEAN_MOTION_DOT":1.03e-6,"MEAN_MOTION_DDOT":0},{"OBJECT_NAME":"NOAA 14","OBJECT_ID":"1994-089A","EPOCH":"2026-03-22T04:49:23.361312","MEAN_MOTION":14.14657974,"ECCENTRICITY":0.00090652,"INCLINATION":98.5045,"RA_OF_ASC_NODE":54.8233,"ARG_OF_PERICENTER":340.6511,"MEAN_ANOMALY":19.4318,"EPHEMERIS_TYPE":0,"CLASSIFICATION_TYPE":"U","NORAD_CAT_ID":23455,"ELEMENT_SET_NO":999,"REV_AT_EPOCH":61090,"BSTAR":5.048353e-5,"MEAN_MOTION_DOT":5.6e-7,"MEAN_MOTION_DDOT":0},{"OBJECT_NAME":"NOAA 15","OBJECT_ID":"1998-030A","EPOCH":"2026-03-22T05:58:02.501184","MEAN_MOTION":14.27117371,"ECCENTRICITY":0.00092442,"INCLINATION":98.515,"RA_OF_ASC_NODE":104.2013,"ARG_OF_PERICENTER":238.7548,"MEAN_ANOMALY":121.2728,"EPHEMERIS_TYPE":0,"CLASSIFICATION_TYPE":"U","NORAD_CAT_ID":25338,"ELEMENT_SET_NO":999,"REV_AT_EPOCH":44889,"BSTAR":7.0986966e-5,"MEAN_MOTION_DOT":1.3e-6,"MEAN_MOTION_DDOT":0},{"OBJECT_NAME":"NOAA 16","OBJECT_ID":"2000-055A","EPOCH":"2026-03-22T04:40:03.668160","MEAN_MOTION":14.13901531,"ECCENTRICITY":0.00102681,"INCLINATION":98.4694,"RA_OF_ASC_NODE":100.0451,"ARG_OF_PERICENTER":184.7524,"MEAN_ANOMALY":175.3554,"EPHEMERIS_TYPE":0,"CLASSIFICATION_TYPE":"U","NORAD_CAT_ID":26536,"ELEMENT_SET_NO":999,"REV_AT_EPOCH":61143,"BSTAR":7.2570405e-5,"MEAN_MOTION_DOT":9.7e-7,"MEAN_MOTION_DDOT":0}]
