TLE2=2 06920 102.2901  94.0283 0006174 285.5010 134.2515 12.40392056371081
TLE2=2 19531  98.6116  29.7070 0010896 182.4735 177.6387 14.15823455935151
TLE2=2 07529 102.0070  92.7922 0009000   5.7393  54.2259 12.53201928348591
TLE2=2 11416  98.5732 111.1068 0010447 151.0914 209.0852 14.35442259438453
TLE2=2 04793 101.3487 119.5979 0031935 156.6949 260.0470 12.54049452529776
TLE2=2 26536  98.4694 100.0451 0010268 184.7524 175.3554 14.13901531611436
TLE2=2 11060  98.4618 106.2495 0011356 130.7181 229.4984 14.19343738666425
TLE2=2 25338  98.5150 104.2013 0009244 238.7548 121.2728 14.27117371448898
TLE2=2 16969  98.7014  74.5750 0010969 248.8385 121.6890 14.29149148 56992
TLE2=2 12553  98.8035 149.0265 0011976 152.9880 207.1921 14.17775845312406
TLE2=2 21263  98.6168  71.0437 0012519 283.9347  76.0441 14.26721403812564
TLE2=2 22739  98.6952  28.2335 0009973  25.0211 335.1443 14.13640208681036
TLE2=2 09057 102.2978  66.7679 0009943 137.6207 233.8853 12.37828790243710
TLE2=2 15427  99.1083 105.6587 0013848 234.2806 187.4958 14.17042907131082
TLE2=2 13923  98.7370  94.1301 0015350 149.2541 210.9543 14.29771619238657
TLE2=2 23455  98.5045  54.8233 0009065 340.6511  19.4318 14.14657974610907
TLE2=2 06235 102.0155  98.5446 0003849 341.4882  76.5683 12.53212207444026
